STARLINK-30827          
1 58195U 23167W   26067.60443985 -.00002571  00000+0 -83948-4 0  9999
2 58195  43.0010 149.1353 0001333 267.1665  92.9034 15.27576838130820
TRANSPORTER-12 OBJECT BT
1 62674U 25009BT  26068.71416991  .00013824  00000+0  51029-3 0  9998
2 62674  97.4094 151.5992 0003682 313.5044  46.5889 15.27872239121360
